{
  "type": "FeatureCollection",
  "features": [
    {
      "type": "Feature",
      "properties": {
        "norad_id": 37415,
        "name": "FENGYUN 1C DEB",
        "group": "fengyun-1c-debris",
        "lat": -42.03849238560215,
        "lon": 112.79398307215891,
        "alt_km": 1273.9070676206993,
        "timestamp": "2025-12-23T18:59:32.255300+00:00",
        "meta_object_name": "FENGYUN 1C DEB",
        "meta_object_id": "1999-025EGH",
        "meta_epoch": "2025-12-22T00:35:27.249216",
        "meta_mean_motion": 13.52096686,
        "meta_eccentricity": 0.02853053,
        "meta_inclination": 98.9816,
        "meta_ra_of_asc_node": 102.9947,
        "meta_arg_of_pericenter": 158.6618,
        "meta_mean_anomaly": 202.6701,
        "meta_ephemeris_type": 0,
        "meta_classification_type": "U",
        "meta_norad_cat_id": 37415,
        "meta_element_set_no": 999,
        "meta_rev_at_epoch": 62447,
        "meta_bstar": 0.00031360217,
        "meta_mean_motion_dot": 2.29e-06,
        "meta_mean_motion_ddot": 0,
        "tle_line1": "1 37415U 99025EGH 25356.02462094  .00000229  00000+0  31360-3 0  9991",
        "tle_line2": "2 37415  98.9816 102.9947 0285305 158.6618 202.6701 13.52096686624470"
      },
      "geometry": {
        "type": "Point",
        "coordinates": [
          112.79398307215891,
          -42.03849238560215
        ]
      }
    },
    {
      "type": "Feature",
      "properties": {
        "norad_id": 37417,
        "name": "FENGYUN 1C DEB",
        "group": "fengyun-1c-debris",
        "lat": 44.35950319888505,
        "lon": 179.00398852929823,
        "alt_km": 868.6294394635024,
        "timestamp": "2025-12-23T18:59:32.255309+00:00",
        "meta_object_name": "FENGYUN 1C DEB",
        "meta_object_id": "1999-025EGK",
        "meta_epoch": "2025-12-14T05:42:40.741056",
        "meta_mean_motion": 14.07392005,
        "meta_eccentricity": 0.00781873,
        "meta_inclination": 98.797,
        "meta_ra_of_asc_node": 340.9941,
        "meta_arg_of_pericenter": 256.4358,
        "meta_mean_anomaly": 102.8093,
        "meta_ephemeris_type": 0,
        "meta_classification_type": "U",
        "meta_norad_cat_id": 37417,
        "meta_element_set_no": 999,
        "meta_rev_at_epoch": 68371,
        "meta_bstar": 0.00034066216,
        "meta_mean_motion_dot": 5.45e-06,
        "meta_mean_motion_ddot": 0,
        "tle_line1": "1 37417U 99025EGK 25348.23797154  .00000545  00000+0  34066-3 0  9992",
        "tle_line2": "2 37417  98.7970 340.9941 0078187 256.4358 102.8093 14.07392005683717"
      },
      "geometry": {
        "type": "Point",
        "coordinates": [
          179.00398852929823,
          44.35950319888505
        ]
      }
    },
    {
      "type": "Feature",
      "properties": {
        "norad_id": 37418,
        "name": "FENGYUN 1C DEB",
        "group": "fengyun-1c-debris",
        "lat": 25.424183862507792,
        "lon": 70.40551130911533,
        "alt_km": 2369.2651724391117,
        "timestamp": "2025-12-23T18:59:32.255318+00:00",
        "meta_object_name": "FENGYUN 1C DEB",
        "meta_object_id": "1999-025EGL",
        "meta_epoch": "2025-12-19T23:37:42.567744",
        "meta_mean_motion": 11.95144251,
        "meta_eccentricity": 0.10761283,
        "meta_inclination": 98.6118,
        "meta_ra_of_asc_node": 243.7385,
        "meta_arg_of_pericenter": 305.6539,
        "meta_mean_anomaly": 44.8873,
        "meta_ephemeris_type": 0,
        "meta_classification_type": "U",
        "meta_norad_cat_id": 37418,
        "meta_element_set_no": 999,
        "meta_rev_at_epoch": 49571,
        "meta_bstar": -0.00092644522,
        "meta_mean_motion_dot": -4.14e-06,
        "meta_mean_motion_ddot": 0,
        "tle_line1": "1 37418U 99025EGL 25353.98452046 -.00000414  00000+0 -92645-3 0  9993",
        "tle_line2": "2 37418  98.6118 243.7385 1076128 305.6539  44.8873 11.95144251495719"
      },
      "geometry": {
        "type": "Point",
        "coordinates": [
          70.40551130911533,
          25.424183862507792
        ]
      }
    },
    {
      "type": "Feature",
      "properties": {
        "norad_id": 37420,
        "name": "FENGYUN 1C DEB",
        "group": "fengyun-1c-debris",
        "lat": 68.13635738754934,
        "lon": -35.45023983965127,
        "alt_km": 939.3844125925834,
        "timestamp": "2025-12-23T18:59:32.255327+00:00",
        "meta_object_name": "FENGYUN 1C DEB",
        "meta_object_id": "1999-025EGN",
        "meta_epoch": "2025-12-20T18:36:12.337056",
        "meta_mean_motion": 13.99759458,
        "meta_eccentricity": 0.00709493,
        "meta_inclination": 98.8637,
        "meta_ra_of_asc_node": 344.5139,
        "meta_arg_of_pericenter": 253.6303,
        "meta_mean_anomaly": 105.7053,
        "meta_ephemeris_type": 0,
        "meta_classification_type": "U",
        "meta_norad_cat_id": 37420,
        "meta_element_set_no": 999,
        "meta_rev_at_epoch": 59877,
        "meta_bstar": 0.00033965148,
        "meta_mean_motion_dot": 4.65e-06,
        "meta_mean_motion_ddot": 0,
        "tle_line1": "1 37420U 99025EGN 25354.77514279  .00000465  00000+0  33965-3 0  9995",
        "tle_line2": "2 37420  98.8637 344.5139 0070949 253.6303 105.7053 13.99759458598776"
      },
      "geometry": {
        "type": "Point",
        "coordinates": [
          -35.45023983965127,
          68.13635738754934
        ]
      }
    },
    {
      "type": "Feature",
      "properties": {
        "norad_id": 37421,
        "name": "FENGYUN 1C DEB",
        "group": "fengyun-1c-debris",
        "lat": -36.92564015902962,
        "lon": 124.46143149781396,
        "alt_km": 1399.2376714985621,
        "timestamp": "2025-12-23T18:59:32.255336+00:00",
        "meta_object_name": "FENGYUN 1C DEB",
        "meta_object_id": "1999-025EGP",
        "meta_epoch": "2025-12-22T15:04:15.674880",
        "meta_mean_motion": 13.40544347,
        "meta_eccentricity": 0.04094585,
        "meta_inclination": 98.8889,
        "meta_ra_of_asc_node": 310.1905,
        "meta_arg_of_pericenter": 60.6769,
        "meta_mean_anomaly": 303.4625,
        "meta_ephemeris_type": 0,
        "meta_classification_type": "U",
        "meta_norad_cat_id": 37421,
        "meta_element_set_no": 999,
        "meta_rev_at_epoch": 61078,
        "meta_bstar": 0.00082017291,
        "meta_mean_motion_dot": 7.02e-06,
        "meta_mean_motion_ddot": 0,
        "tle_line1": "1 37421U 99025EGP 25356.62795920  .00000702  00000+0  82017-3 0  9992",
        "tle_line2": "2 37421  98.8889 310.1905 0409458  60.6769 303.4625 13.40544347610782"
      },
      "geometry": {
        "type": "Point",
        "coordinates": [
          124.46143149781396,
          -36.92564015902962
        ]
      }
    },
    {
      "type": "Feature",
      "properties": {
        "norad_id": 37423,
        "name": "FENGYUN 1C DEB",
        "group": "fengyun-1c-debris",
        "lat": 45.52383820870142,
        "lon": 38.66799351560415,
        "alt_km": 859.0628475787844,
        "timestamp": "2025-12-23T18:59:32.255345+00:00",
        "meta_object_name": "FENGYUN 1C DEB",
        "meta_object_id": "1999-025EGR",
        "meta_epoch": "2025-12-19T20:56:31.693920",
        "meta_mean_motion": 14.07571536,
        "meta_eccentricity": 0.0049402,
        "meta_inclination": 98.7853,
        "meta_ra_of_asc_node": 43.9189,
        "meta_arg_of_pericenter": 140.2024,
        "meta_mean_anomaly": 220.2786,
        "meta_ephemeris_type": 0,
        "meta_classification_type": "U",
        "meta_norad_cat_id": 37423,
        "meta_element_set_no": 999,
        "meta_rev_at_epoch": 63710,
        "meta_bstar": 0.00067171,
        "meta_mean_motion_dot": 1.103e-05,
        "meta_mean_motion_ddot": 0,
        "tle_line1": "1 37423U 99025EGR 25353.87258905  .00001103  00000+0  67171-3 0  9995",
        "tle_line2": "2 37423  98.7853  43.9189 0049402 140.2024 220.2786 14.07571536637100"
      },
      "geometry": {
        "type": "Point",
        "coordinates": [
          38.66799351560415,
          45.52383820870142
        ]
      }
    },
    {
      "type": "Feature",
      "properties": {
        "norad_id": 37424,
        "name": "FENGYUN 1C DEB",
        "group": "fengyun-1c-debris",
        "lat": -29.41947974140299,
        "lon": 128.29914896460684,
        "alt_km": 811.2601532150038,
        "timestamp": "2025-12-23T18:59:32.255354+00:00",
        "meta_object_name": "FENGYUN 1C DEB",
        "meta_object_id": "1999-025EGS",
        "meta_epoch": "2025-12-21T14:37:45.437952",
        "meta_mean_motion": 14.17892468,
        "meta_eccentricity": 0.021449,
        "meta_inclination": 97.1981,
        "meta_ra_of_asc_node": 122.4405,
        "meta_arg_of_pericenter": 255.8264,
        "meta_mean_anomaly": 101.9002,
        "meta_ephemeris_type": 0,
        "meta_classification_type": "U",
        "meta_norad_cat_id": 37424,
        "meta_element_set_no": 999,
        "meta_rev_at_epoch": 68699,
        "meta_bstar": 0.00090223,
        "meta_mean_motion_dot": 2.279e-05,
        "meta_mean_motion_ddot": 0,
        "tle_line1": "1 37424U 99025EGS 25355.60955368  .00002279  00000+0  90223-3 0  9995",
        "tle_line2": "2 37424  97.1981 122.4405 0214490 255.8264 101.9002 14.17892468686998"
      },
      "geometry": {
        "type": "Point",
        "coordinates": [
          128.29914896460684,
          -29.41947974140299
        ]
      }
    }
  ]
}